[{"OBJECT_NAME":"ICEYE-X31","OBJECT_ID":"2023-174AJ","EPOCH":"2026-03-09T23:06:20.433600","MEAN_MOTION":15.30950809,"ECCENTRICITY":0.00015021,"INCLINATION":97.3851,"RA_OF_ASC_NODE":144.9524,"ARG_OF_PERICENTER":332.6589,"MEAN_ANOMALY":27.4572,"EPHEMERIS_TYPE":0,"CLASSIFICATION_TYPE":"U","NORAD_CAT_ID":58288,"ELEMENT_SET_NO":999,"REV_AT_EPOCH":12955,"BSTAR":0.00066288467,"MEAN_MOTION_DOT":0.00019777,"MEAN_MOTION_DDOT":0},{"OBJECT_NAME":"STARLINK-35852","OBJECT_ID":"2025-283M","EPOCH":"2026-03-09T07:07:03.541728","MEAN_MOTION":15.30180185,"ECCENTRICITY":0.00013794,"INCLINATION":53.1614,"RA_OF_ASC_NODE":26.0141,"ARG_OF_PERICENTER":72.4217,"MEAN_ANOMALY":287.6935,"EPHEMERIS_TYPE":0,"CLASSIFICATION_TYPE":"U","NORAD_CAT_ID":66889,"ELEMENT_SET_NO":999,"REV_AT_EPOCH":1578,"BSTAR":0.0006888838,"MEAN_MOTION_DOT":0.00020086,"MEAN_MOTION_DDOT":0}]
